SIRIUS-1                
1 26390U 00035A   09010.59084865  .00000057  00000-0  10000-3 0  4141
2 26390  61.6916 256.5480 2716769 270.7197  58.8270  1.00276394 31266
SIRIUS-2                
1 26483U 00051A   09009.25323709  .00000042  00000-0  10000-3 0  1350
2 26483  63.6981 136.2767 2698129 268.4742  60.7824  1.00276249 30584
SIRIUS-3                
1 26626U 00077A   09010.92009955 -.00000133  00000-0  10000-3 0  3643
2 26626  63.9468  16.2048 2670931 269.7906  59.8595  1.00271724 29734
XM-2 (ROCK)             
1 26724U 01012A   09009.22743534 -.00000196  00000-0  10000-3 0  5226
2 26724   0.0739 271.5454 0000299 180.9344  13.0271  1.00269297 28706
XM-1 (ROLL)             
1 26761U 01018A   09011.10562444 -.00000205  00000-0  10000-3 0  3030
2 26761   0.0802 269.2570 0000228  90.5914  63.7645  1.00270019 28196
XM-3 (RHYTHM)           
1 28626U 05008A   09010.05251936 -.00000201  00000-0  10000-3 0  5385
2 28626   0.0091   6.2784 0000284 125.5489 271.6938  1.00269683 14221
XM-4 (BLUES)            
1 29520U 06049A   09011.50108703 -.00000026  00000-0  10000-3 0  3168
2 29520   0.0045 358.8659 0000266 248.9155 288.7441  1.00272539  8170
